{
  "type": "FeatureCollection",
  "features": [
    {
      "type": "Feature",
      "properties": {
        "norad_id": 37562,
        "name": "IRIDIUM 33 DEB",
        "group": "iridium-33-debris",
        "lat": -45.084795122861046,
        "lon": 40.299530301471556,
        "alt_km": 728.6279106920229,
        "timestamp": "2025-12-11T22:43:47.655469+00:00",
        "meta_object_name": "IRIDIUM 33 DEB",
        "meta_object_id": "1997-051XX",
        "meta_epoch": "2025-12-10T10:43:42.898656",
        "meta_mean_motion": 14.56439028,
        "meta_eccentricity": 0.00267432,
        "meta_inclination": 86.3738,
        "meta_ra_of_asc_node": 44.6002,
        "meta_arg_of_pericenter": 115.0841,
        "meta_mean_anomaly": 259.891,
        "meta_ephemeris_type": 0,
        "meta_classification_type": "U",
        "meta_norad_cat_id": 37562,
        "meta_element_set_no": 999,
        "meta_rev_at_epoch": 86295,
        "meta_bstar": 0.0016081413,
        "meta_mean_motion_dot": 7.198e-05,
        "meta_mean_motion_ddot": 0,
        "tle_line1": "1 37562U 97051XX  25344.44702429  .00007198  00000+0  16081-2 0  9997",
        "tle_line2": "2 37562  86.3738  44.6002 0026743 115.0841 259.8910 14.56439028862954"
      },
      "geometry": {
        "type": "Point",
        "coordinates": [
          40.299530301471556,
          -45.084795122861046
        ]
      }
    },
    {
      "type": "Feature",
      "properties": {
        "norad_id": 37565,
        "name": "IRIDIUM 33 DEB",
        "group": "iridium-33-debris",
        "lat": 69.67916396218548,
        "lon": 179.9964070145299,
        "alt_km": 704.1622440636565,
        "timestamp": "2025-12-11T22:43:47.655483+00:00",
        "meta_object_name": "IRIDIUM 33 DEB",
        "meta_object_id": "1997-051YA",
        "meta_epoch": "2025-12-09T09:00:32.620320",
        "meta_mean_motion": 14.51496664,
        "meta_eccentricity": 0.00152947,
        "meta_inclination": 86.3494,
        "meta_ra_of_asc_node": 11.0435,
        "meta_arg_of_pericenter": 94.02,
        "meta_mean_anomaly": 266.2754,
        "meta_ephemeris_type": 0,
        "meta_classification_type": "U",
        "meta_norad_cat_id": 37565,
        "meta_element_set_no": 999,
        "meta_rev_at_epoch": 65788,
        "meta_bstar": 0.00087733557,
        "meta_mean_motion_dot": 3.53e-05,
        "meta_mean_motion_ddot": 0,
        "tle_line1": "1 37565U 97051YA  25343.37537755  .00003530  00000+0  87734-3 0  9999",
        "tle_line2": "2 37565  86.3494  11.0435 0015294  94.0200 266.2754 14.51496664657884"
      },
      "geometry": {
        "type": "Point",
        "coordinates": [
          179.9964070145299,
          69.67916396218548
        ]
      }
    },
    {
      "type": "Feature",
      "properties": {
        "norad_id": 38017,
        "name": "IRIDIUM 33 DEB",
        "group": "iridium-33-debris",
        "lat": -26.41663182534862,
        "lon": -11.60880380104894,
        "alt_km": 746.458786288521,
        "timestamp": "2025-12-11T22:43:47.655496+00:00",
        "meta_object_name": "IRIDIUM 33 DEB",
        "meta_object_id": "1997-051YD",
        "meta_epoch": "2025-12-09T11:46:33.974400",
        "meta_mean_motion": 14.48798155,
        "meta_eccentricity": 0.00922627,
        "meta_inclination": 86.3416,
        "meta_ra_of_asc_node": 167.6374,
        "meta_arg_of_pericenter": 113.885,
        "meta_mean_anomaly": 247.2055,
        "meta_ephemeris_type": 0,
        "meta_classification_type": "U",
        "meta_norad_cat_id": 38017,
        "meta_element_set_no": 999,
        "meta_rev_at_epoch": 61355,
        "meta_bstar": 0.007075922,
        "meta_mean_motion_dot": 0.00028304,
        "meta_mean_motion_ddot": 0,
        "tle_line1": "1 38017U 97051YD  25343.49067100  .00028304  00000+0  70759-2 0  9991",
        "tle_line2": "2 38017  86.3416 167.6374 0092262 113.8850 247.2055 14.48798155613557"
      },
      "geometry": {
        "type": "Point",
        "coordinates": [
          -11.60880380104894,
          -26.41663182534862
        ]
      }
    },
    {
      "type": "Feature",
      "properties": {
        "norad_id": 38022,
        "name": "IRIDIUM 33 DEB",
        "group": "iridium-33-debris",
        "lat": 8.749775417388907,
        "lon": 17.365350050454808,
        "alt_km": 732.2164441513132,
        "timestamp": "2025-12-11T22:43:47.655509+00:00",
        "meta_object_name": "IRIDIUM 33 DEB",
        "meta_object_id": "1997-051YJ",
        "meta_epoch": "2025-12-10T20:01:44.139360",
        "meta_mean_motion": 14.41229968,
        "meta_eccentricity": 0.0046709,
        "meta_inclination": 86.2688,
        "meta_ra_of_asc_node": 17.2769,
        "meta_arg_of_pericenter": 56.5664,
        "meta_mean_anomaly": 303.9989,
        "meta_ephemeris_type": 0,
        "meta_classification_type": "U",
        "meta_norad_cat_id": 38022,
        "meta_element_set_no": 999,
        "meta_rev_at_epoch": 69166,
        "meta_bstar": 0.0014202,
        "meta_mean_motion_dot": 4.664e-05,
        "meta_mean_motion_ddot": 0,
        "tle_line1": "1 38022U 97051YJ  25344.83453865  .00004664  00000+0  14202-2 0  9997",
        "tle_line2": "2 38022  86.2688  17.2769 0046709  56.5664 303.9989 14.41229968691660"
      },
      "geometry": {
        "type": "Point",
        "coordinates": [
          17.365350050454808,
          8.749775417388907
        ]
      }
    },
    {
      "type": "Feature",
      "properties": {
        "norad_id": 38028,
        "name": "IRIDIUM 33 DEB",
        "group": "iridium-33-debris",
        "lat": 40.857821223909625,
        "lon": 177.42784878057634,
        "alt_km": 714.3441208400391,
        "timestamp": "2025-12-11T22:43:47.655519+00:00",
        "meta_object_name": "IRIDIUM 33 DEB",
        "meta_object_id": "1997-051YQ",
        "meta_epoch": "2025-12-09T08:38:54.868992",
        "meta_mean_motion": 14.46171938,
        "meta_eccentricity": 0.00301795,
        "meta_inclination": 86.3256,
        "meta_ra_of_asc_node": 1.7381,
        "meta_arg_of_pericenter": 131.6061,
        "meta_mean_anomaly": 228.7734,
        "meta_ephemeris_type": 0,
        "meta_classification_type": "U",
        "meta_norad_cat_id": 38028,
        "meta_element_set_no": 999,
        "meta_rev_at_epoch": 65446,
        "meta_bstar": 0.0004464513,
        "meta_mean_motion_dot": 1.624e-05,
        "meta_mean_motion_ddot": 0,
        "tle_line1": "1 38028U 97051YQ  25343.36035728  .00001624  00000+0  44645-3 0  9992",
        "tle_line2": "2 38028  86.3256   1.7381 0030179 131.6061 228.7734 14.46171938654463"
      },
      "geometry": {
        "type": "Point",
        "coordinates": [
          177.42784878057634,
          40.857821223909625
        ]
      }
    },
    {
      "type": "Feature",
      "properties": {
        "norad_id": 38228,
        "name": "IRIDIUM 33 DEB",
        "group": "iridium-33-debris",
        "lat": 53.66772799822095,
        "lon": -136.24671908744494,
        "alt_km": 776.9732130416714,
        "timestamp": "2025-12-11T22:43:47.655530+00:00",
        "meta_object_name": "IRIDIUM 33 DEB",
        "meta_object_id": "1997-051ZC",
        "meta_epoch": "2025-12-08T11:59:08.255904",
        "meta_mean_motion": 14.27257685,
        "meta_eccentricity": 0.00637921,
        "meta_inclination": 86.2952,
        "meta_ra_of_asc_node": 50.2726,
        "meta_arg_of_pericenter": 203.1298,
        "meta_mean_anomaly": 220.077,
        "meta_ephemeris_type": 0,
        "meta_classification_type": "U",
        "meta_norad_cat_id": 38228,
        "meta_element_set_no": 999,
        "meta_rev_at_epoch": 84721,
        "meta_bstar": 0.00059886698,
        "meta_mean_motion_dot": 1.514e-05,
        "meta_mean_motion_ddot": 0,
        "tle_line1": "1 38228U 97051ZC  25342.49940111  .00001514  00000+0  59887-3 0  9990",
        "tle_line2": "2 38228  86.2952  50.2726 0063792 203.1298 220.0770 14.27257685847218"
      },
      "geometry": {
        "type": "Point",
        "coordinates": [
          -136.24671908744494,
          53.66772799822095
        ]
      }
    },
    {
      "type": "Feature",
      "properties": {
        "norad_id": 38241,
        "name": "IRIDIUM 33 DEB",
        "group": "iridium-33-debris",
        "lat": -30.37887246795357,
        "lon": -11.21054702483206,
        "alt_km": 716.9271506561463,
        "timestamp": "2025-12-11T22:43:47.655540+00:00",
        "meta_object_name": "IRIDIUM 33 DEB",
        "meta_object_id": "1997-051ZR",
        "meta_epoch": "2025-12-11T08:00:47.481696",
        "meta_mean_motion": 14.54853492,
        "meta_eccentricity": 0.00056662,
        "meta_inclination": 86.3236,
        "meta_ra_of_asc_node": 351.2198,
        "meta_arg_of_pericenter": 76.7484,
        "meta_mean_anomaly": 283.4354,
        "meta_ephemeris_type": 0,
        "meta_classification_type": "U",
        "meta_norad_cat_id": 38241,
        "meta_element_set_no": 999,
        "meta_rev_at_epoch": 60180,
        "meta_bstar": 0.0013259899,
        "meta_mean_motion_dot": 5.712e-05,
        "meta_mean_motion_ddot": 0,
        "tle_line1": "1 38241U 97051ZR  25345.33388289  .00005712  00000+0  13260-2 0  9991",
        "tle_line2": "2 38241  86.3236 351.2198 0005666  76.7484 283.4354 14.54853492601805"
      },
      "geometry": {
        "type": "Point",
        "coordinates": [
          -11.21054702483206,
          -30.37887246795357
        ]
      }
    }
  ]
}